STARLINK-3995           
1 52632U 22052AL  25350.12432203 -.00000386  00000+0 -61475-5 0  9997
2 52632  53.2186 284.2628 0001329  92.6339 267.4805 15.08836681198381
STARLINK-3994           
1 52633U 22052AM  25350.23471403  .00002080  00000+0  14870-3 0  9991
2 52633  53.2180 283.7651 0001547  89.6138 270.5032 15.08847291198400
STARLINK-3974           
1 52634U 22052AN  25350.11695568  .00000448  00000+0  46285-4 0  9991
2 52634  53.2185 284.3227 0001346  83.6695 276.4450 15.08817935198378
STARLINK-3978           
1 52635U 22052AP  25350.21723826  .00002717  00000+0  18872-3 0  9993
2 52635  53.2182 273.8449 0001368  90.2932 269.8217 15.08840766198530
STARLINK-3967           
1 52636U 22052AQ  25350.17579490  .00006410  00000+0  42004-3 0  9993
2 52636  53.2186 284.0307 0001160  83.2303 276.8822 15.08879631198382
STARLINK-3961           
1 52637U 22052AR  25350.21357192  .00004353  00000+0  29150-3 0  9993
2 52637  53.2183 273.8607 0001404 107.3859 252.7287 15.08826083199331
STARLINK-3941           
1 52638U 22052AS  25350.10591221  .00001334  00000+0  10189-3 0  9993
2 52638  53.2185 284.3452 0001243  84.5035 275.6099 15.08844704199180
STARLINK-3968           
1 52639U 22052AT  25350.07004340 -.00000445  00000+0 -98333-5 0  9994
2 52639  53.2188 274.5045 0001559  87.1981 272.9190 15.08845982199318
STARLINK-3977           
1 52640U 22052AU  25350.22091746  .00000435  00000+0  45444-4 0  9990
2 52640  53.2184 273.8569 0001354  89.9026 270.2121 15.08840626198529
STARLINK-3991           
1 52641U 22052AV  25350.21821453 -.00000021  00000+0  16739-4 0  9993
2 52641  53.2184 274.0427 0001323  84.6027 275.5117 15.08846892198530
STARLINK-3971           
1 52642U 22052AW  25350.20987156  .00003125  00000+0  21431-3 0  9997
2 52642  53.2180 273.8769 0001450  88.8593 271.2566 15.08847322198527
STARLINK-3963           
1 52643U 22052AX  25350.18507205  .00001930  00000+0  13936-3 0  9991
2 52643  53.2175 273.9584 0001315  93.7634 266.3508 15.08834730198529
STARLINK-3985           
1 52644U 22052AY  25350.20619831  .00001985  00000+0  14276-3 0  9992
2 52644  53.2174 273.8944 0001435  81.9337 278.1818 15.08841348198528
STARLINK-3973           
1 52645U 22052AZ  25350.06268600 -.00000342  00000+0 -34093-5 0  9990
2 52645  53.2173 274.6408 0001354  93.1856 266.9291 15.08851956198507
STARLINK-3832           
1 52646U 22052BA  25350.19883652  .00001191  00000+0  92881-4 0  9994
2 52646  53.2173 273.9630 0001472  91.3248 268.7913 15.08847449198539
STARLINK-3854           
1 52648U 22052BC  25350.05900242 -.00005844  00000+0 -34926-3 0  9992
2 52648  53.2174 274.5544 0001243  90.6307 269.4827 15.08854857198507
