[{"OBJECT_NAME":"STARLINK-3995","OBJECT_ID":"2022-052AL","EPOCH":"2025-12-16T02:59:01.423392","MEAN_MOTION":15.08836681,"ECCENTRICITY":0.00013294,"INCLINATION":53.2186,"RA_OF_ASC_NODE":284.2628,"ARG_OF_PERICENTER":92.6339,"MEAN_ANOMALY":267.4805,"EPHEMERIS_TYPE":0,"CLASSIFICATION_TYPE":"U","NORAD_CAT_ID":52632,"ELEMENT_SET_NO":999,"REV_AT_EPOCH":19838,"BSTAR":-6.147455e-6,"MEAN_MOTION_DOT":-3.86e-6,"MEAN_MOTION_DDOT":0},{"OBJECT_NAME":"STARLINK-3994","OBJECT_ID":"2022-052AM","EPOCH":"2025-12-16T05:37:59.292192","MEAN_MOTION":15.08847291,"ECCENTRICITY":0.00015471,"INCLINATION":53.218,"RA_OF_ASC_NODE":283.7651,"ARG_OF_PERICENTER":89.6138,"MEAN_ANOMALY":270.5032,"EPHEMERIS_TYPE":0,"CLASSIFICATION_TYPE":"U","NORAD_CAT_ID":52633,"ELEMENT_SET_NO":999,"REV_AT_EPOCH":19840,"BSTAR":0.00014870279,"MEAN_MOTION_DOT":2.08e-5,"MEAN_MOTION_DDOT":0},{"OBJECT_NAME":"STARLINK-3974","OBJECT_ID":"2022-052AN","EPOCH":"2025-12-16T02:48:24.970752","MEAN_MOTION":15.08817935,"ECCENTRICITY":0.00013468,"INCLINATION":53.2185,"RA_OF_ASC_NODE":284.3227,"ARG_OF_PERICENTER":83.6695,"MEAN_ANOMALY":276.445,"EPHEMERIS_TYPE":0,"CLASSIFICATION_TYPE":"U","NORAD_CAT_ID":52634,"ELEMENT_SET_NO":999,"REV_AT_EPOCH":19837,"BSTAR":4.6284992e-5,"MEAN_MOTION_DOT":4.48e-6,"MEAN_MOTION_DDOT":0},{"OBJECT_NAME":"STARLINK-3978","OBJECT_ID":"2022-052AP","EPOCH":"2025-12-16T05:12:49.385664","MEAN_MOTION":15.08840766,"ECCENTRICITY":0.00013683,"INCLINATION":53.2182,"RA_OF_ASC_NODE":273.8449,"ARG_OF_PERICENTER":90.2932,"MEAN_ANOMALY":269.8217,"EPHEMERIS_TYPE":0,"CLASSIFICATION_TYPE":"U","NORAD_CAT_ID":52635,"ELEMENT_SET_NO":999,"REV_AT_EPOCH":19853,"BSTAR":0.00018872176,"MEAN_MOTION_DOT":2.717e-5,"MEAN_MOTION_DDOT":0},{"OBJECT_NAME":"STARLINK-3967","OBJECT_ID":"2022-052AQ","EPOCH":"2025-12-16T04:13:08.679360","MEAN_MOTION":15.08879631,"ECCENTRICITY":0.00011602,"INCLINATION":53.2186,"RA_OF_ASC_NODE":284.0307,"ARG_OF_PERICENTER":83.2303,"MEAN_ANOMALY":276.8822,"EPHEMERIS_TYPE":0,"CLASSIFICATION_TYPE":"U","NORAD_CAT_ID":52636,"ELEMENT_SET_NO":999,"REV_AT_EPOCH":19838,"BSTAR":0.00042003736,"MEAN_MOTION_DOT":6.41e-5,"MEAN_MOTION_DDOT":0},{"OBJECT_NAME":"STARLINK-3961","OBJECT_ID":"2022-052AR","EPOCH":"2025-12-16T05:07:32.613888","MEAN_MOTION":15.08826083,"ECCENTRICITY":0.00014049,"INCLINATION":53.2183,"RA_OF_ASC_NODE":273.8607,"ARG_OF_PERICENTER":107.3859,"MEAN_ANOMALY":252.7287,"EPHEMERIS_TYPE":0,"CLASSIFICATION_TYPE":"U","NORAD_CAT_ID":52637,"ELEMENT_SET_NO":999,"REV_AT_EPOCH":19933,"BSTAR":0.00029150465,"MEAN_MOTION_DOT":4.353e-5,"MEAN_MOTION_DDOT":0},{"OBJECT_NAME":"STARLINK-3941","OBJECT_ID":"2022-052AS","EPOCH":"2025-12-16T02:32:30.814944","MEAN_MOTION":15.08844704,"ECCENTRICITY":0.00012433,"INCLINATION":53.2185,"RA_OF_ASC_NODE":284.3452,"ARG_OF_PERICENTER":84.5035,"MEAN_ANOMALY":275.6099,"EPHEMERIS_TYPE":0,"CLASSIFICATION_TYPE":"U","NORAD_CAT_ID":52638,"ELEMENT_SET_NO":999,"REV_AT_EPOCH":19918,"BSTAR":0.00010189102,"MEAN_MOTION_DOT":1.334e-5,"MEAN_MOTION_DDOT":0},{"OBJECT_NAME":"STARLINK-3968","OBJECT_ID":"2022-052AT","EPOCH":"2025-12-16T01:40:51.749760","MEAN_MOTION":15.08845982,"ECCENTRICITY":0.0001559,"INCLINATION":53.2188,"RA_OF_ASC_NODE":274.5045,"ARG_OF_PERICENTER":87.1981,"MEAN_ANOMALY":272.919,"EPHEMERIS_TYPE":0,"CLASSIFICATION_TYPE":"U","NORAD_CAT_ID":52639,"ELEMENT_SET_NO":999,"REV_AT_EPOCH":19931,"BSTAR":-9.833294e-6,"MEAN_MOTION_DOT":-4.45e-6,"MEAN_MOTION_DDOT":0},{"OBJECT_NAME":"STARLINK-3977","OBJECT_ID":"2022-052AU","EPOCH":"2025-12-16T05:18:07.268544","MEAN_MOTION":15.08840626,"ECCENTRICITY":0.00013545,"INCLINATION":53.2184,"RA_OF_ASC_NODE":273.8569,"ARG_OF_PERICENTER":89.9026,"MEAN_ANOMALY":270.2121,"EPHEMERIS_TYPE":0,"CLASSIFICATION_TYPE":"U","NORAD_CAT_ID":52640,"ELEMENT_SET_NO":999,"REV_AT_EPOCH":19852,"BSTAR":4.5444243e-5,"MEAN_MOTION_DOT":4.35e-6,"MEAN_MOTION_DDOT":0},{"OBJECT_NAME":"STARLINK-3991","OBJECT_ID":"2022-052AV","EPOCH":"2025-12-16T05:14:13.735392","MEAN_MOTION":15.08846892,"ECCENTRICITY":0.00013238,"INCLINATION":53.2184,"RA_OF_ASC_NODE":274.0427,"ARG_OF_PERICENTER":84.6027,"MEAN_ANOMALY":275.5117,"EPHEMERIS_TYPE":0,"CLASSIFICATION_TYPE":"U","NORAD_CAT_ID":52641,"ELEMENT_SET_NO":999,"REV_AT_EPOCH":19853,"BSTAR":1.6739359e-5,"MEAN_MOTION_DOT":-2.1e-7,"MEAN_MOTION_DDOT":0},{"OBJECT_NAME":"STARLINK-3971","OBJECT_ID":"2022-052AW","EPOCH":"2025-12-16T05:02:12.902784","MEAN_MOTION":15.08847322,"ECCENTRICITY":0.00014507,"INCLINATION":53.218,"RA_OF_ASC_NODE":273.8769,"ARG_OF_PERICENTER":88.8593,"MEAN_ANOMALY":271.2566,"EPHEMERIS_TYPE":0,"CLASSIFICATION_TYPE":"U","NORAD_CAT_ID":52642,"ELEMENT_SET_NO":999,"REV_AT_EPOCH":19852,"BSTAR":0.00021431091,"MEAN_MOTION_DOT":3.125e-5,"MEAN_MOTION_DDOT":0},{"OBJECT_NAME":"STARLINK-3963","OBJECT_ID":"2022-052AX","EPOCH":"2025-12-16T04:26:30.225120","MEAN_MOTION":15.0883473,"ECCENTRICITY":0.00013154,"INCLINATION":53.2175,"RA_OF_ASC_NODE":273.9584,"ARG_OF_PERICENTER":93.7634,"MEAN_ANOMALY":266.3508,"EPHEMERIS_TYPE":0,"CLASSIFICATION_TYPE":"U","NORAD_CAT_ID":52643,"ELEMENT_SET_NO":999,"REV_AT_EPOCH":19852,"BSTAR":0.00013936047,"MEAN_MOTION_DOT":1.93e-5,"MEAN_MOTION_DDOT":0},{"OBJECT_NAME":"STARLINK-3985","OBJECT_ID":"2022-052AY","EPOCH":"2025-12-16T04:56:55.533984","MEAN_MOTION":15.08841348,"ECCENTRICITY":0.00014353,"INCLINATION":53.2174,"RA_OF_ASC_NODE":273.8944,"ARG_OF_PERICENTER":81.9337,"MEAN_ANOMALY":278.1818,"EPHEMERIS_TYPE":0,"CLASSIFICATION_TYPE":"U","NORAD_CAT_ID":52644,"ELEMENT_SET_NO":999,"REV_AT_EPOCH":19852,"BSTAR":0.00014276063,"MEAN_MOTION_DOT":1.985e-5,"MEAN_MOTION_DDOT":0},{"OBJECT_NAME":"STARLINK-3973","OBJECT_ID":"2022-052AZ","EPOCH":"2025-12-16T01:30:16.070400","MEAN_MOTION":15.08851956,"ECCENTRICITY":0.00013549,"INCLINATION":53.2173,"RA_OF_ASC_NODE":274.6408,"ARG_OF_PERICENTER":93.1856,"MEAN_ANOMALY":266.9291,"EPHEMERIS_TYPE":0,"CLASSIFICATION_TYPE":"U","NORAD_CAT_ID":52645,"ELEMENT_SET_NO":999,"REV_AT_EPOCH":19850,"BSTAR":-3.409284e-6,"MEAN_MOTION_DOT":-3.42e-6,"MEAN_MOTION_DDOT":0},{"OBJECT_NAME":"STARLINK-3832","OBJECT_ID":"2022-052BA","EPOCH":"2025-12-16T04:46:19.475328","MEAN_MOTION":15.08847449,"ECCENTRICITY":0.00014725,"INCLINATION":53.2173,"RA_OF_ASC_NODE":273.963,"ARG_OF_PERICENTER":91.3248,"MEAN_ANOMALY":268.7913,"EPHEMERIS_TYPE":0,"CLASSIFICATION_TYPE":"U","NORAD_CAT_ID":52646,"ELEMENT_SET_NO":999,"REV_AT_EPOCH":19853,"BSTAR":9.2881436e-5,"MEAN_MOTION_DOT":1.191e-5,"MEAN_MOTION_DDOT":0},{"OBJECT_NAME":"STARLINK-3854","OBJECT_ID":"2022-052BC","EPOCH":"2025-12-16T01:24:57.809088","MEAN_MOTION":15.08854857,"ECCENTRICITY":0.00012431,"INCLINATION":53.2174,"RA_OF_ASC_NODE":274.5544,"ARG_OF_PERICENTER":90.6307,"MEAN_ANOMALY":269.4827,"EPHEMERIS_TYPE":0,"CLASSIFICATION_TYPE":"U","NORAD_CAT_ID":52648,"ELEMENT_SET_NO":999,"REV_AT_EPOCH":19850,"BSTAR":-0.00034926129,"MEAN_MOTION_DOT":-5.844e-5,"MEAN_MOTION_DDOT":0}]
